ONEWEB-0142             
1 47288U 20100AG  25226.53012275 -.00000187  00000+0 -55474-3 0  9999
2 47288  87.8865  51.6150 0001464  99.9556 260.1738 13.12443131224445
ONEWEB-0143             
1 47289U 20100AH  25226.53971377 -.00000455  00000+0 -13002-2 0  9995
2 47289  87.8863  51.6106 0001766  88.4328 271.7003 13.12443532224426
ONEWEB-0144             
1 47290U 20100AJ  25226.51214851  .00000378  00000+0  10140-2 0  9994
2 47290  87.8855  51.5940 0001468  90.3163 269.8134 13.12442664224341
ONEWEB-0145             
1 47291U 20100AK  25226.48293994 -.00000085  00000+0 -27265-3 0  9990
2 47291  87.8861  51.6286 0001666  88.3639 271.7680 13.12444708224538
ONEWEB-0146             
1 47292U 20100AL  25226.47969458 -.00000230  00000+0 -67450-3 0  9997
2 47292  87.8862  51.6158 0002121  87.2617 272.8755 13.12444370224449
ONEWEB-0147             
1 47293U 20100AM  25226.52187704  .00000129  00000+0  32275-3 0  9992
2 47293  87.8860  51.5859 0001653  79.8757 280.2558 13.12440643224348
ONEWEB-0115             
1 48042U 21025A   25226.40855350  .00000254  00000+0  66141-3 0  9996
2 48042  87.8985  21.1532 0001827  94.0100 266.1238 13.13470419213323
ONEWEB-0152             
1 48043U 21025B   25226.49826444  .00000336  00000+0  88466-3 0  9993
2 48043  87.8985  21.1498 0001860  91.2908 268.8434 13.13470565213292
ONEWEB-0153             
1 48044U 21025C   25226.47625760 -.00000108  00000+0 -32953-3 0  9999
2 48044  87.8986  21.1528 0001746  95.9390 264.1939 13.13470592213285
ONEWEB-0154             
1 48045U 21025D   25226.47286766 -.00000107  00000+0 -32683-3 0  9998
2 48045  87.8983  21.1516 0001777  92.4931 267.6402 13.13470859213242
ONEWEB-0116             
1 48046U 21025E   25226.51180867  .00000128  00000+0  31491-3 0  9996
2 48046  87.8988  21.1250 0001902  91.8075 268.3272 13.13468597213390
ONEWEB-0150             
1 48047U 21025F   25226.48810516  .00000246  00000+0  63844-3 0  9992
2 48047  87.8987  21.1251 0001808 100.5118 259.6215 13.13470599213285
ONEWEB-0107             
1 48048U 21025G   25226.48979668  .00000325  00000+0  85385-3 0  9999
2 48048  87.8985  21.1229 0001469  96.9867 263.1429 13.13471160213261
ONEWEB-0101             
1 48049U 21025H   25226.45254792 -.00000281  00000+0 -80359-3 0  9990
2 48049  87.8986  21.1698 0001628  91.7745 268.3570 13.13468570213230
ONEWEB-0113             
1 48050U 21025J   25226.43937730  .00000022  00000+0  24861-4 0  9998
2 48050  87.8984  21.1182 0001912  94.0561 266.0787 13.13976178213329
ONEWEB-0112             
1 48051U 21025K   25226.41870319  .00000335  00000+0  88346-3 0  9990
2 48051  87.8986  21.1337 0001765  97.0444 263.0886 13.13470442213323
ONEWEB-0156             
1 48052U 21025L   25226.42716237  .00000363  00000+0  95910-3 0  9996
2 48052  87.8986  21.1442 0001682  98.0070 262.1250 13.13470005213303
