[{"OBJECT_NAME":"ONEWEB-0142","OBJECT_ID":"2020-100AG","EPOCH":"2025-08-14T12:43:22.605600","MEAN_MOTION":13.12443131,"ECCENTRICITY":0.0001464,"INCLINATION":87.8865,"RA_OF_ASC_NODE":51.615,"ARG_OF_PERICENTER":99.9556,"MEAN_ANOMALY":260.1738,"EPHEMERIS_TYPE":0,"CLASSIFICATION_TYPE":"U","NORAD_CAT_ID":47288,"ELEMENT_SET_NO":999,"REV_AT_EPOCH":22444,"BSTAR":-0.00055474,"MEAN_MOTION_DOT":-1.87e-6,"MEAN_MOTION_DDOT":0},{"OBJECT_NAME":"ONEWEB-0143","OBJECT_ID":"2020-100AH","EPOCH":"2025-08-14T12:57:11.269728","MEAN_MOTION":13.12443532,"ECCENTRICITY":0.0001766,"INCLINATION":87.8863,"RA_OF_ASC_NODE":51.6106,"ARG_OF_PERICENTER":88.4328,"MEAN_ANOMALY":271.7003,"EPHEMERIS_TYPE":0,"CLASSIFICATION_TYPE":"U","NORAD_CAT_ID":47289,"ELEMENT_SET_NO":999,"REV_AT_EPOCH":22442,"BSTAR":-0.0013002,"MEAN_MOTION_DOT":-4.55e-6,"MEAN_MOTION_DDOT":0},{"OBJECT_NAME":"ONEWEB-0144","OBJECT_ID":"2020-100AJ","EPOCH":"2025-08-14T12:17:29.631264","MEAN_MOTION":13.12442664,"ECCENTRICITY":0.0001468,"INCLINATION":87.8855,"RA_OF_ASC_NODE":51.594,"ARG_OF_PERICENTER":90.3163,"MEAN_ANOMALY":269.8134,"EPHEMERIS_TYPE":0,"CLASSIFICATION_TYPE":"U","NORAD_CAT_ID":47290,"ELEMENT_SET_NO":999,"REV_AT_EPOCH":22434,"BSTAR":0.001014,"MEAN_MOTION_DOT":3.78e-6,"MEAN_MOTION_DDOT":0},{"OBJECT_NAME":"ONEWEB-0145","OBJECT_ID":"2020-100AK","EPOCH":"2025-08-14T11:35:26.010816","MEAN_MOTION":13.12444708,"ECCENTRICITY":0.0001666,"INCLINATION":87.8861,"RA_OF_ASC_NODE":51.6286,"ARG_OF_PERICENTER":88.3639,"MEAN_ANOMALY":271.768,"EPHEMERIS_TYPE":0,"CLASSIFICATION_TYPE":"U","NORAD_CAT_ID":47291,"ELEMENT_SET_NO":999,"REV_AT_EPOCH":22453,"BSTAR":-0.00027265,"MEAN_MOTION_DOT":-8.5e-7,"MEAN_MOTION_DDOT":0},{"OBJECT_NAME":"ONEWEB-0146","OBJECT_ID":"2020-100AL","EPOCH":"2025-08-14T11:30:45.611712","MEAN_MOTION":13.1244437,"ECCENTRICITY":0.0002121,"INCLINATION":87.8862,"RA_OF_ASC_NODE":51.6158,"ARG_OF_PERICENTER":87.2617,"MEAN_ANOMALY":272.8755,"EPHEMERIS_TYPE":0,"CLASSIFICATION_TYPE":"U","NORAD_CAT_ID":47292,"ELEMENT_SET_NO":999,"REV_AT_EPOCH":22444,"BSTAR":-0.0006745,"MEAN_MOTION_DOT":-2.3e-6,"MEAN_MOTION_DDOT":0},{"OBJECT_NAME":"ONEWEB-0147","OBJECT_ID":"2020-100AM","EPOCH":"2025-08-14T12:31:30.176256","MEAN_MOTION":13.12440643,"ECCENTRICITY":0.0001653,"INCLINATION":87.886,"RA_OF_ASC_NODE":51.5859,"ARG_OF_PERICENTER":79.8757,"MEAN_ANOMALY":280.2558,"EPHEMERIS_TYPE":0,"CLASSIFICATION_TYPE":"U","NORAD_CAT_ID":47293,"ELEMENT_SET_NO":999,"REV_AT_EPOCH":22434,"BSTAR":0.00032275,"MEAN_MOTION_DOT":1.29e-6,"MEAN_MOTION_DDOT":0},{"OBJECT_NAME":"ONEWEB-0115","OBJECT_ID":"2021-025A","EPOCH":"2025-08-14T09:48:19.022400","MEAN_MOTION":13.13470419,"ECCENTRICITY":0.0001827,"INCLINATION":87.8985,"RA_OF_ASC_NODE":21.1532,"ARG_OF_PERICENTER":94.01,"MEAN_ANOMALY":266.1238,"EPHEMERIS_TYPE":0,"CLASSIFICATION_TYPE":"U","NORAD_CAT_ID":48042,"ELEMENT_SET_NO":999,"REV_AT_EPOCH":21332,"BSTAR":0.00066141,"MEAN_MOTION_DOT":2.54e-6,"MEAN_MOTION_DDOT":0},{"OBJECT_NAME":"ONEWEB-0152","OBJECT_ID":"2021-025B","EPOCH":"2025-08-14T11:57:30.047616","MEAN_MOTION":13.13470565,"ECCENTRICITY":0.000186,"INCLINATION":87.8985,"RA_OF_ASC_NODE":21.1498,"ARG_OF_PERICENTER":91.2908,"MEAN_ANOMALY":268.8434,"EPHEMERIS_TYPE":0,"CLASSIFICATION_TYPE":"U","NORAD_CAT_ID":48043,"ELEMENT_SET_NO":999,"REV_AT_EPOCH":21329,"BSTAR":0.00088466,"MEAN_MOTION_DOT":3.36e-6,"MEAN_MOTION_DDOT":0},{"OBJECT_NAME":"ONEWEB-0153","OBJECT_ID":"2021-025C","EPOCH":"2025-08-14T11:25:48.656640","MEAN_MOTION":13.13470592,"ECCENTRICITY":0.0001746,"INCLINATION":87.8986,"RA_OF_ASC_NODE":21.1528,"ARG_OF_PERICENTER":95.939,"MEAN_ANOMALY":264.1939,"EPHEMERIS_TYPE":0,"CLASSIFICATION_TYPE":"U","NORAD_CAT_ID":48044,"ELEMENT_SET_NO":999,"REV_AT_EPOCH":21328,"BSTAR":-0.00032953,"MEAN_MOTION_DOT":-1.08e-6,"MEAN_MOTION_DDOT":0},{"OBJECT_NAME":"ONEWEB-0154","OBJECT_ID":"2021-025D","EPOCH":"2025-08-14T11:20:55.765824","MEAN_MOTION":13.13470859,"ECCENTRICITY":0.0001777,"INCLINATION":87.8983,"RA_OF_ASC_NODE":21.1516,"ARG_OF_PERICENTER":92.4931,"MEAN_ANOMALY":267.6402,"EPHEMERIS_TYPE":0,"CLASSIFICATION_TYPE":"U","NORAD_CAT_ID":48045,"ELEMENT_SET_NO":999,"REV_AT_EPOCH":21324,"BSTAR":-0.00032683,"MEAN_MOTION_DOT":-1.07e-6,"MEAN_MOTION_DDOT":0},{"OBJECT_NAME":"ONEWEB-0116","OBJECT_ID":"2021-025E","EPOCH":"2025-08-14T12:17:00.269088","MEAN_MOTION":13.13468597,"ECCENTRICITY":0.0001902,"INCLINATION":87.8988,"RA_OF_ASC_NODE":21.125,"ARG_OF_PERICENTER":91.8075,"MEAN_ANOMALY":268.3272,"EPHEMERIS_TYPE":0,"CLASSIFICATION_TYPE":"U","NORAD_CAT_ID":48046,"ELEMENT_SET_NO":999,"REV_AT_EPOCH":21339,"BSTAR":0.00031491,"MEAN_MOTION_DOT":1.28e-6,"MEAN_MOTION_DDOT":0},{"OBJECT_NAME":"ONEWEB-0150","OBJECT_ID":"2021-025F","EPOCH":"2025-08-14T11:42:52.285824","MEAN_MOTION":13.13470599,"ECCENTRICITY":0.0001808,"INCLINATION":87.8987,"RA_OF_ASC_NODE":21.1251,"ARG_OF_PERICENTER":100.5118,"MEAN_ANOMALY":259.6215,"EPHEMERIS_TYPE":0,"CLASSIFICATION_TYPE":"U","NORAD_CAT_ID":48047,"ELEMENT_SET_NO":999,"REV_AT_EPOCH":21328,"BSTAR":0.00063844,"MEAN_MOTION_DOT":2.46e-6,"MEAN_MOTION_DDOT":0},{"OBJECT_NAME":"ONEWEB-0107","OBJECT_ID":"2021-025G","EPOCH":"2025-08-14T11:45:18.433152","MEAN_MOTION":13.1347116,"ECCENTRICITY":0.0001469,"INCLINATION":87.8985,"RA_OF_ASC_NODE":21.1229,"ARG_OF_PERICENTER":96.9867,"MEAN_ANOMALY":263.1429,"EPHEMERIS_TYPE":0,"CLASSIFICATION_TYPE":"U","NORAD_CAT_ID":48048,"ELEMENT_SET_NO":999,"REV_AT_EPOCH":21326,"BSTAR":0.00085385,"MEAN_MOTION_DOT":3.25e-6,"MEAN_MOTION_DDOT":0},{"OBJECT_NAME":"ONEWEB-0101","OBJECT_ID":"2021-025H","EPOCH":"2025-08-14T10:51:40.140288","MEAN_MOTION":13.1346857,"ECCENTRICITY":0.0001628,"INCLINATION":87.8986,"RA_OF_ASC_NODE":21.1698,"ARG_OF_PERICENTER":91.7745,"MEAN_ANOMALY":268.357,"EPHEMERIS_TYPE":0,"CLASSIFICATION_TYPE":"U","NORAD_CAT_ID":48049,"ELEMENT_SET_NO":999,"REV_AT_EPOCH":21323,"BSTAR":-0.00080359,"MEAN_MOTION_DOT":-2.81e-6,"MEAN_MOTION_DDOT":0},{"OBJECT_NAME":"ONEWEB-0113","OBJECT_ID":"2021-025J","EPOCH":"2025-08-14T10:32:42.198720","MEAN_MOTION":13.13976178,"ECCENTRICITY":0.0001912,"INCLINATION":87.8984,"RA_OF_ASC_NODE":21.1182,"ARG_OF_PERICENTER":94.0561,"MEAN_ANOMALY":266.0787,"EPHEMERIS_TYPE":0,"CLASSIFICATION_TYPE":"U","NORAD_CAT_ID":48050,"ELEMENT_SET_NO":999,"REV_AT_EPOCH":21332,"BSTAR":2.4861e-5,"MEAN_MOTION_DOT":2.2e-7,"MEAN_MOTION_DDOT":0},{"OBJECT_NAME":"ONEWEB-0112","OBJECT_ID":"2021-025K","EPOCH":"2025-08-14T10:02:55.955616","MEAN_MOTION":13.13470442,"ECCENTRICITY":0.0001765,"INCLINATION":87.8986,"RA_OF_ASC_NODE":21.1337,"ARG_OF_PERICENTER":97.0444,"MEAN_ANOMALY":263.0886,"EPHEMERIS_TYPE":0,"CLASSIFICATION_TYPE":"U","NORAD_CAT_ID":48051,"ELEMENT_SET_NO":999,"REV_AT_EPOCH":21332,"BSTAR":0.00088346,"MEAN_MOTION_DOT":3.35e-6,"MEAN_MOTION_DDOT":0},{"OBJECT_NAME":"ONEWEB-0156","OBJECT_ID":"2021-025L","EPOCH":"2025-08-14T10:15:06.828768","MEAN_MOTION":13.13470005,"ECCENTRICITY":0.0001682,"INCLINATION":87.8986,"RA_OF_ASC_NODE":21.1442,"ARG_OF_PERICENTER":98.007,"MEAN_ANOMALY":262.125,"EPHEMERIS_TYPE":0,"CLASSIFICATION_TYPE":"U","NORAD_CAT_ID":48052,"ELEMENT_SET_NO":999,"REV_AT_EPOCH":21330,"BSTAR":0.0009591,"MEAN_MOTION_DOT":3.63e-6,"MEAN_MOTION_DDOT":0}]
